start=new Date('2021-11-26T00:00:00.000Z').valueOf();
sats=[{"ECCENTRICITY":"0.00013610","OBJECT_NAME":"STARLINK-1478","REF_FRAME":"TEME","BSTAR":"0.00002509100000","FILE":"3224126","ARG_OF_PERICENTER":"62.1881","DECAY_DATE":null,"MEAN_MOTION_DOT":"0.00000092","REV_AT_EPOCH":"8057","TLE_LINE1":"1 45755U 20038AB  21329.60812407  .00000092  00000-0  25091-4 0  9996","TLE_LINE2":"2 45755  53.0572  42.5547 0001361  62.1881 297.9245 15.06395868 80573","RCS_SIZE":"LARGE","RA_OF_ASC_NODE":"42.5547","ELEMENT_SET_NO":"999","MEAN_MOTION_DDOT":"0.0000000000000","COUNTRY_CODE":"US","EPHEMERIS_TYPE":"0","PERIAPSIS":"546.284","SEMIMAJOR_AXIS":"6925.361","SITE":"AFETR","APOAPSIS":"548.169","OBJECT_TYPE":"PAYLOAD","OBJECT_ID":"2020-038AB","CENTER_NAME":"EARTH","MEAN_MOTION":"15.06395868","MEAN_ANOMALY":"297.9245","EPOCH":"2021-11-25T14:35:41.919648","MEAN_ELEMENT_THEORY":"SGP4","LAUNCH_DATE":"2020-06-13","TIME_SYSTEM":"UTC","NORAD_CAT_ID":"45755","PERIOD":"95.592","GP_ID":"190490722","INCLINATION":"53.0572","CLASSIFICATION_TYPE":"U"},{"OBJECT_NAME":"STARLINK-1484","REF_FRAME":"TEME","ECCENTRICITY":"0.00012880","ARG_OF_PERICENTER":"78.5472","BSTAR":"0.00011625000000","FILE":"3224126","REV_AT_EPOCH":"8062","MEAN_MOTION_DOT":"0.00001451","DECAY_DATE":null,"RCS_SIZE":"LARGE","ELEMENT_SET_NO":"999","RA_OF_ASC_NODE":"41.0745","TLE_LINE2":"2 45756  53.0562  41.0745 0001288  78.5472 281.5661 15.06402519 80621","MEAN_MOTION_DDOT":"0.0000000000000","TLE_LINE1":"1 45756U 20038AC  21329.93616717  .00001451  00000-0  11625-3 0  9996","PERIAPSIS":"546.314","COUNTRY_CODE":"US","EPHEMERIS_TYPE":"0","APOAPSIS":"548.098","SEMIMAJOR_AXIS":"6925.341","SITE":"AFETR","CENTER_NAME":"EARTH","MEAN_ANOMALY":"281.5661","MEAN_MOTION":"15.06402519","OBJECT_ID":"2020-038AC","OBJECT_TYPE":"PAYLOAD","INCLINATION":"53.0562","GP_ID":"190491972","PERIOD":"95.592","CLASSIFICATION_TYPE":"U","LAUNCH_DATE":"2020-06-13","MEAN_ELEMENT_THEORY":"SGP4","EPOCH":"2021-11-25T22:28:04.843488","NORAD_CAT_ID":"45756","TIME_SYSTEM":"UTC"},{"ARG_OF_PERICENTER":"75.1194","FILE":"3224126","BSTAR":"0.00003048500000","REF_FRAME":"TEME","OBJECT_NAME":"STARLINK-1486","ECCENTRICITY":"0.00010780","MEAN_MOTION_DDOT":"0.0000000000000","TLE_LINE2":"2 45757  53.0560  42.1852 0001078  75.1194 284.9915 15.06405812 80585","RA_OF_ASC_NODE":"42.1852","RCS_SIZE":"LARGE","ELEMENT_SET_NO":"999","TLE_LINE1":"1 45757U 20038AD  21329.68921336  .00000173  00000-0  30485-4 0  9991","MEAN_MOTION_DOT":"0.00000173","REV_AT_EPOCH":"8058","DECAY_DATE":null,"SITE":"AFETR","SEMIMAJOR_AXIS":"6925.331","APOAPSIS":"547.942","PERIAPSIS":"546.449","EPHEMERIS_TYPE":"0","COUNTRY_CODE":"US","CLASSIFICATION_TYPE":"U","PERIOD":"95.592","GP_ID":"190492223","INCLINATION":"53.0560","TIME_SYSTEM":"UTC","NORAD_CAT_ID":"45757","EPOCH":"2021-11-25T16:32:28.034304","LAUNCH_DATE":"2020-06-13","MEAN_ELEMENT_THEORY":"SGP4","MEAN_MOTION":"15.06405812","MEAN_ANOMALY":"284.9915","CENTER_NAME":"EARTH","OBJECT_ID":"2020-038AD","OBJECT_TYPE":"PAYLOAD"},{"INCLINATION":"53.0556","GP_ID":"190468247","PERIOD":"95.592","CLASSIFICATION_TYPE":"U","LAUNCH_DATE":"2020-06-13","MEAN_ELEMENT_THEORY":"SGP4","EPOCH":"2021-11-25T11:35:13.785216","NORAD_CAT_ID":"45758","TIME_SYSTEM":"UTC","CENTER_NAME":"EARTH","MEAN_ANOMALY":"289.2212","MEAN_MOTION":"15.06408597","OBJECT_ID":"2020-038AE","OBJECT_TYPE":"PAYLOAD","APOAPSIS":"548.137","SITE":"AFETR","SEMIMAJOR_AXIS":"6925.322","PERIAPSIS":"546.238","COUNTRY_CODE":"US","EPHEMERIS_TYPE":"0","RCS_SIZE":"LARGE","RA_OF_ASC_NODE":"43.1092","ELEMENT_SET_NO":"999","TLE_LINE2":"2 45758  53.0556  43.1092 0001371  70.8925 289.2212 15.06408597 81670","MEAN_MOTION_DDOT":"0.0000000000000","TLE_LINE1":"1 45758U 20038AE  21329.48279844 -.00001156  00000-0 -58709-4 0  9993","MEAN_MOTION_DOT":"-0.00001156","REV_AT_EPOCH":"8167","DECAY_DATE":null,"ARG_OF_PERICENTER":"70.8925","BSTAR":"-0.00005870900000","FILE":"3223979","OBJECT_NAME":"STARLINK-1487","REF_FRAME":"TEME","ECCENTRICITY":"0.00013710"},{"TLE_LINE2":"2 45759  53.0547  41.1080 0001024  75.7602 284.3501 15.06400803 80620","RA_OF_ASC_NODE":"41.1080","RCS_SIZE":"LARGE","ELEMENT_SET_NO":"999","MEAN_MOTION_DDOT":"0.0000000000000","TLE_LINE1":"1 45759U 20038AF  21329.92879759  .00001439  00000-0  11550-3 0  9998","REV_AT_EPOCH":"8062","MEAN_MOTION_DOT":"0.00001439","DECAY_DATE":null,"ARG_OF_PERICENTER":"75.7602","BSTAR":"0.00011550000000","FILE":"3224126","OBJECT_NAME":"STARLINK-1493","REF_FRAME":"TEME","ECCENTRICITY":"0.00010240","PERIOD":"95.592","GP_ID":"190491221","INCLINATION":"53.0547","CLASSIFICATION_TYPE":"U","EPOCH":"2021-11-25T22:17:28.111776","MEAN_ELEMENT_THEORY":"SGP4","LAUNCH_DATE":"2020-06-13","TIME_SYSTEM":"UTC","NORAD_CAT_ID":"45759","CENTER_NAME":"EARTH","MEAN_MOTION":"15.06400803","MEAN_ANOMALY":"284.3501","OBJECT_TYPE":"PAYLOAD","OBJECT_ID":"2020-038AF","SITE":"AFETR","SEMIMAJOR_AXIS":"6925.346","APOAPSIS":"547.920","PERIAPSIS":"546.502","COUNTRY_CODE":"US","EPHEMERIS_TYPE":"0"},{"ECCENTRICITY":"0.00011560","REF_FRAME":"TEME","OBJECT_NAME":"STARLINK-1494","FILE":"3223911","BSTAR":"0.00000472780000","ARG_OF_PERICENTER":"77.9848","DECAY_DATE":null,"REV_AT_EPOCH":"8056","MEAN_MOTION_DOT":"-0.00000211","TLE_LINE1":"1 45760U 20038AG  21329.46806548 -.00000211  00000-0  47278-5 0  9991","MEAN_MOTION_DDOT":"0.0000000000000","ELEMENT_SET_NO":"999","RCS_SIZE":"LARGE","RA_OF_ASC_NODE":"43.1831","TLE_LINE2":"2 45760  53.0563  43.1831 0001156  77.9848 282.1271 15.06388533 80566","EPHEMERIS_TYPE":"0","COUNTRY_CODE":"US","PERIAPSIS":"546.448","APOAPSIS":"548.049","SITE":"AFETR","SEMIMAJOR_AXIS":"6925.384","OBJECT_ID":"2020-038AG","OBJECT_TYPE":"PAYLOAD","MEAN_ANOMALY":"282.1271","MEAN_MOTION":"15.06388533","CENTER_NAME":"EARTH","NORAD_CAT_ID":"45760","TIME_SYSTEM":"UTC","MEAN_ELEMENT_THEORY":"SGP4","LAUNCH_DATE":"2020-06-13","EPOCH":"2021-11-25T11:14:00.857472","CLASSIFICATION_TYPE":"U","INCLINATION":"53.0563","GP_ID":"190463485","PERIOD":"95.593"},{"SEMIMAJOR_AXIS":"6775.656","SITE":"AFETR","APOAPSIS":"399.469","PERIAPSIS":"395.574","EPHEMERIS_TYPE":"0","COUNTRY_CODE":"US","CLASSIFICATION_TYPE":"U","PERIOD":"92.510","GP_ID":"190463736","INCLINATION":"53.0555","TIME_SYSTEM":"UTC","NORAD_CAT_ID":"45761","EPOCH":"2021-11-25T03:03:32.796288","LAUNCH_DATE":"2020-06-13","MEAN_ELEMENT_THEORY":"SGP4","MEAN_MOTION":"15.56595298","MEAN_ANOMALY":"309.0300","CENTER_NAME":"EARTH","OBJECT_TYPE":"PAYLOAD","OBJECT_ID":"2020-038AH","ARG_OF_PERICENTER":"51.0966","FILE":"3223911","BSTAR":"0.00014052000000","REF_FRAME":"TEME","OBJECT_NAME":"STARLINK-1495","ECCENTRICITY":"0.00028740","MEAN_MOTION_DDOT":"0.0000000000000","TLE_LINE2":"2 45761  53.0555  16.8058 0002874  51.0966 309.0300 15.56595298 80912","RA_OF_ASC_NODE":"16.8058","RCS_SIZE":"LARGE","ELEMENT_SET_NO":"999","TLE_LINE1":"1 45761U 20038AH  21329.12746292  .00009693  00000-0  14052-3 0  9998","MEAN_MOTION_DOT":"0.00009693","REV_AT_EPOCH":"8091","DECAY_DATE":null},{"EPHEMERIS_TYPE":"0","COUNTRY_CODE":"US","PERIAPSIS":"546.502","APOAPSIS":"547.930","SITE":"AFETR","SEMIMAJOR_AXIS":"6925.351","OBJECT_ID":"2020-038AJ","OBJECT_TYPE":"PAYLOAD","MEAN_ANOMALY":"291.8903","MEAN_MOTION":"15.06399151","CENTER_NAME":"EARTH","NORAD_CAT_ID":"45762","TIME_SYSTEM":"UTC","MEAN_ELEMENT_THEORY":"SGP4","LAUNCH_DATE":"2020-06-13","EPOCH":"2021-11-25T15:18:09.361440","CLASSIFICATION_TYPE":"U","INCLINATION":"53.0561","GP_ID":"190490473","PERIOD":"95.592","ECCENTRICITY":"0.00010310","REF_FRAME":"TEME","OBJECT_NAME":"STARLINK-1499","FILE":"3224126","BSTAR":"0.00014930000000","ARG_OF_PERICENTER":"68.2196","DECAY_DATE":null,"MEAN_MOTION_DOT":"0.00001943","REV_AT_EPOCH":"8059","TLE_LINE1":"1 45762U 20038AJ  21329.63760835  .00001943  00000-0  14930-3 0  9999","MEAN_MOTION_DDOT":"0.0000000000000","RCS_SIZE":"LARGE","ELEMENT_SET_NO":"999","RA_OF_ASC_NODE":"42.4183","TLE_LINE2":"2 45762  53.0561  42.4183 0001031  68.2196 291.8903 15.06399151 80599"},{"ARG_OF_PERICENTER":"347.2338","FILE":"3224126","BSTAR":"0.00427540000000","REF_FRAME":"TEME","OBJECT_NAME":"STARLINK-1501","ECCENTRICITY":"0.00009300","MEAN_MOTION_DDOT":"0.0000000000000","RCS_SIZE":"LARGE","ELEMENT_SET_NO":"999","RA_OF_ASC_NODE":"336.6193","TLE_LINE2":"2 45763  53.0541 336.6193 0000930 347.2338  12.8656 15.73148372 81714","TLE_LINE1":"1 45763U 20038AK  21329.73813663  .00646741  00000-0  42754-2 0  9994","MEAN_MOTION_DOT":"0.00646741","REV_AT_EPOCH":"8171","DECAY_DATE":null,"APOAPSIS":"350.533","SITE":"AFETR","SEMIMAJOR_AXIS":"6728.042","PERIAPSIS":"349.282","EPHEMERIS_TYPE":"0","COUNTRY_CODE":"US","CLASSIFICATION_TYPE":"U","INCLINATION":"53.0541","GP_ID":"190490723","PERIOD":"91.536","NORAD_CAT_ID":"45763","TIME_SYSTEM":"UTC","MEAN_ELEMENT_THEORY":"SGP4","LAUNCH_DATE":"2020-06-13","EPOCH":"2021-11-25T17:42:55.004832","MEAN_ANOMALY":"12.8656","MEAN_MOTION":"15.73148372","CENTER_NAME":"EARTH","OBJECT_TYPE":"PAYLOAD","OBJECT_ID":"2020-038AK"},{"PERIOD":"95.593","GP_ID":"190491973","INCLINATION":"53.0547","CLASSIFICATION_TYPE":"U","EPOCH":"2021-11-25T15:07:33.136032","MEAN_ELEMENT_THEORY":"SGP4","LAUNCH_DATE":"2020-06-13","TIME_SYSTEM":"UTC","NORAD_CAT_ID":"45764","CENTER_NAME":"EARTH","MEAN_MOTION":"15.06391530","MEAN_ANOMALY":"282.3534","OBJECT_ID":"2020-038AL","OBJECT_TYPE":"PAYLOAD","SITE":"AFETR","SEMIMAJOR_AXIS":"6925.375","APOAPSIS":"548.231","PERIAPSIS":"546.248","COUNTRY_CODE":"US","EPHEMERIS_TYPE":"0","TLE_LINE2":"2 45764  53.0547  42.4373 0001432  77.7616 282.3534 15.06391530 80591","ELEMENT_SET_NO":"999","RCS_SIZE":"LARGE","RA_OF_ASC_NODE":"42.4373","MEAN_MOTION_DDOT":"0.0000000000000","TLE_LINE1":"1 45764U 20038AL  21329.63024463 -.00000195  00000-0  57902-5 0  9998","MEAN_MOTION_DOT":"-0.00000195","REV_AT_EPOCH":"8059","DECAY_DATE":null,"ARG_OF_PERICENTER":"77.7616","BSTAR":"0.00000579020000","FILE":"3224126","OBJECT_NAME":"STARLINK-1502","REF_FRAME":"TEME","ECCENTRICITY":"0.00014320"}];
